start=new Date('2022-02-24T00:00:00.000Z').valueOf();
sats=[{"EPOCH":"2022-02-23T19:07:46.862688","MEAN_MOTION_DOT":"0.00000782","TLE_LINE1":"1 47151U 20088AF  22054.79707017  .00000782  00000-0  71428-4 0  9990","MEAN_MOTION_DDOT":"0.0000000000000","RA_OF_ASC_NODE":"82.6735","MEAN_MOTION":"15.06389114","TLE_LINE2":"2 47151  53.0553  82.6735 0001687  59.1859 300.9295 15.06389114 69530","APOAPSIS":"548.415","SITE":"AFETR","RCS_SIZE":"LARGE","PERIAPSIS":"546.079","ARG_OF_PERICENTER":"59.1859","CLASSIFICATION_TYPE":"U","REV_AT_EPOCH":"6953","PERIOD":"95.593","SEMIMAJOR_AXIS":"6925.382","BSTAR":"0.00007142800000","REF_FRAME":"TEME","CENTER_NAME":"EARTH","MEAN_ANOMALY":"300.9295","OBJECT_TYPE":"PAYLOAD","COUNTRY_CODE":"US","EPHEMERIS_TYPE":"0","DECAY_DATE":null,"NORAD_CAT_ID":"47151","OBJECT_NAME":"STARLINK-1864","ECCENTRICITY":"0.00016870","OBJECT_ID":"2020-088AF","TIME_SYSTEM":"UTC","FILE":"3317219","INCLINATION":"53.0553","LAUNCH_DATE":"2020-11-25","MEAN_ELEMENT_THEORY":"SGP4","ELEMENT_SET_NO":"999","GP_ID":"196786058"},{"LAUNCH_DATE":"2020-11-25","INCLINATION":"53.0549","FILE":"3317219","MEAN_ELEMENT_THEORY":"SGP4","GP_ID":"196784806","ELEMENT_SET_NO":"999","OBJECT_ID":"2020-088AG","TIME_SYSTEM":"UTC","ECCENTRICITY":"0.00014690","DECAY_DATE":null,"OBJECT_TYPE":"PAYLOAD","COUNTRY_CODE":"US","EPHEMERIS_TYPE":"0","OBJECT_NAME":"STARLINK-1866","NORAD_CAT_ID":"47152","CENTER_NAME":"EARTH","REF_FRAME":"TEME","MEAN_ANOMALY":"300.4373","SEMIMAJOR_AXIS":"6925.328","BSTAR":"0.00009803800000","PERIOD":"95.592","PERIAPSIS":"546.175","REV_AT_EPOCH":"6953","CLASSIFICATION_TYPE":"U","ARG_OF_PERICENTER":"59.6761","MEAN_MOTION":"15.06406839","RA_OF_ASC_NODE":"82.7479","SITE":"AFETR","RCS_SIZE":"LARGE","TLE_LINE2":"2 47152  53.0549  82.7479 0001469  59.6761 300.4373 15.06406839 69533","APOAPSIS":"548.210","MEAN_MOTION_DOT":"0.00001179","EPOCH":"2022-02-23T18:46:32.210400","MEAN_MOTION_DDOT":"0.0000000000000","TLE_LINE1":"1 47152U 20088AG  22054.78231725  .00001179  00000-0  98038-4 0  9995"},{"PERIOD":"95.592","BSTAR":"-0.00002792600000","SEMIMAJOR_AXIS":"6925.333","CLASSIFICATION_TYPE":"U","ARG_OF_PERICENTER":"59.7240","REV_AT_EPOCH":"6947","PERIAPSIS":"546.141","APOAPSIS":"548.254","TLE_LINE2":"2 47153  53.0542  87.5518 0001526  59.7240 300.3900 15.06405214 69475","RCS_SIZE":"LARGE","SITE":"AFETR","RA_OF_ASC_NODE":"87.5518","MEAN_MOTION":"15.06405214","TLE_LINE1":"1 47153U 20088AH  22054.82330123 -.00000698  00000-0 -27926-4 0  9998","MEAN_MOTION_DDOT":"0.0000000000000","EPOCH":"2022-02-23T19:45:33.226272","MEAN_MOTION_DOT":"-0.00000698","ELEMENT_SET_NO":"999","GP_ID":"196785056","MEAN_ELEMENT_THEORY":"SGP4","FILE":"3317219","INCLINATION":"53.0542","LAUNCH_DATE":"2020-11-25","ECCENTRICITY":"0.00015260","TIME_SYSTEM":"UTC","OBJECT_ID":"2020-088AH","NORAD_CAT_ID":"47153","OBJECT_NAME":"STARLINK-1867","COUNTRY_CODE":"US","OBJECT_TYPE":"PAYLOAD","EPHEMERIS_TYPE":"0","DECAY_DATE":null,"MEAN_ANOMALY":"300.3900","REF_FRAME":"TEME","CENTER_NAME":"EARTH"},{"SITE":"AFETR","RCS_SIZE":"LARGE","TLE_LINE2":"2 47154  53.0539  72.8607 0001546  59.2966 300.8175 15.06397198 69672","APOAPSIS":"548.293","MEAN_MOTION":"15.06397198","RA_OF_ASC_NODE":"72.8607","MEAN_MOTION_DDOT":"0.0000000000000","TLE_LINE1":"1 47154U 20088AJ  22054.75375933  .00001292  00000-0  10564-3 0  9997","MEAN_MOTION_DOT":"0.00001292","EPOCH":"2022-02-23T18:05:24.806112","SEMIMAJOR_AXIS":"6925.357","BSTAR":"0.00010564000000","PERIOD":"95.592","REV_AT_EPOCH":"6967","ARG_OF_PERICENTER":"59.2966","CLASSIFICATION_TYPE":"U","PERIAPSIS":"546.151","OBJECT_NAME":"STARLINK-1868","NORAD_CAT_ID":"47154","DECAY_DATE":null,"OBJECT_TYPE":"PAYLOAD","COUNTRY_CODE":"US","EPHEMERIS_TYPE":"0","MEAN_ANOMALY":"300.8175","CENTER_NAME":"EARTH","REF_FRAME":"TEME","MEAN_ELEMENT_THEORY":"SGP4","ELEMENT_SET_NO":"999","GP_ID":"196785808","LAUNCH_DATE":"2020-11-25","INCLINATION":"53.0539","FILE":"3317219","OBJECT_ID":"2020-088AJ","TIME_SYSTEM":"UTC","ECCENTRICITY":"0.00015460"},{"EPOCH":"2022-02-23T18:55:50.084832","MEAN_MOTION_DOT":"0.00000059","MEAN_MOTION_DDOT":"0.0000000000000","TLE_LINE1":"1 47155U 20088AK  22054.78877413  .00000059  00000-0  22903-4 0  9992","MEAN_MOTION":"15.06398107","RA_OF_ASC_NODE":"92.6959","RCS_SIZE":"LARGE","SITE":"AFETR","APOAPSIS":"548.681","TLE_LINE2":"2 47155  53.0557  92.6959 0002111  46.6773 313.4392 15.06398107 69399","PERIAPSIS":"545.757","REV_AT_EPOCH":"6939","ARG_OF_PERICENTER":"46.6773","CLASSIFICATION_TYPE":"U","BSTAR":"0.00002290300000","SEMIMAJOR_AXIS":"6925.354","PERIOD":"95.592","CENTER_NAME":"EARTH","REF_FRAME":"TEME","MEAN_ANOMALY":"313.4392","DECAY_DATE":null,"COUNTRY_CODE":"US","OBJECT_TYPE":"PAYLOAD","EPHEMERIS_TYPE":"0","OBJECT_NAME":"STARLINK-1869","NORAD_CAT_ID":"47155","TIME_SYSTEM":"UTC","OBJECT_ID":"2020-088AK","ECCENTRICITY":"0.00021110","LAUNCH_DATE":"2020-11-25","INCLINATION":"53.0557","FILE":"3317219","ELEMENT_SET_NO":"999","GP_ID":"196786559","MEAN_ELEMENT_THEORY":"SGP4"},{"COUNTRY_CODE":"US","OBJECT_TYPE":"PAYLOAD","EPHEMERIS_TYPE":"0","DECAY_DATE":null,"NORAD_CAT_ID":"47156","OBJECT_NAME":"STARLINK-1870","REF_FRAME":"TEME","CENTER_NAME":"EARTH","MEAN_ANOMALY":"82.7488","INCLINATION":"53.0549","FILE":"3317219","LAUNCH_DATE":"2020-11-25","MEAN_ELEMENT_THEORY":"SGP4","ELEMENT_SET_NO":"999","GP_ID":"196785307","ECCENTRICITY":"0.00083450","OBJECT_ID":"2020-088AL","TIME_SYSTEM":"UTC","RA_OF_ASC_NODE":"326.0318","MEAN_MOTION":"15.81137643","TLE_LINE2":"2 47156  53.0549 326.0318 0008345 277.2585  82.7488 15.81137643 71183","APOAPSIS":"332.820","SITE":"AFETR","RCS_SIZE":"LARGE","MEAN_MOTION_DOT":"-0.00000261","EPOCH":"2022-02-23T18:53:36.604608","TLE_LINE1":"1 47156U 20088AL  22054.78722922 -.00000261  00000-0  22866-5 0  9992","MEAN_MOTION_DDOT":"0.0000000000000","PERIOD":"91.074","SEMIMAJOR_AXIS":"6705.359","BSTAR":"0.00000228660000","PERIAPSIS":"321.629","ARG_OF_PERICENTER":"277.2585","CLASSIFICATION_TYPE":"U","REV_AT_EPOCH":"7118"},{"ELEMENT_SET_NO":"999","GP_ID":"196743566","MEAN_ELEMENT_THEORY":"SGP4","LAUNCH_DATE":"2020-11-25","INCLINATION":"53.0534","FILE":"3316306","TIME_SYSTEM":"UTC","OBJECT_ID":"2020-088AM","ECCENTRICITY":"0.00017610","OBJECT_NAME":"STARLINK-1871","NORAD_CAT_ID":"47157","DECAY_DATE":null,"COUNTRY_CODE":"US","OBJECT_TYPE":"PAYLOAD","EPHEMERIS_TYPE":"0","MEAN_ANOMALY":"306.0347","CENTER_NAME":"EARTH","REF_FRAME":"TEME","BSTAR":"-0.00005503500000","SEMIMAJOR_AXIS":"6925.369","PERIOD":"95.593","REV_AT_EPOCH":"6950","CLASSIFICATION_TYPE":"U","ARG_OF_PERICENTER":"54.0805","PERIAPSIS":"546.015","RCS_SIZE":"LARGE","SITE":"AFETR","APOAPSIS":"548.454","TLE_LINE2":"2 47157  53.0534  83.7174 0001761  54.0805 306.0347 15.06393265 69506","MEAN_MOTION":"15.06393265","RA_OF_ASC_NODE":"83.7174","MEAN_MOTION_DDOT":"0.0000000000000","TLE_LINE1":"1 47157U 20088AM  22054.56116314 -.00001101  00000-0 -55035-4 0  9999","EPOCH":"2022-02-23T13:28:04.495296","MEAN_MOTION_DOT":"-0.00001101"},{"OBJECT_TYPE":"PAYLOAD","COUNTRY_CODE":"US","EPHEMERIS_TYPE":"0","DECAY_DATE":null,"NORAD_CAT_ID":"47158","OBJECT_NAME":"STARLINK-1873","REF_FRAME":"TEME","CENTER_NAME":"EARTH","MEAN_ANOMALY":"298.1953","INCLINATION":"53.0543","FILE":"3317219","LAUNCH_DATE":"2020-11-25","MEAN_ELEMENT_THEORY":"SGP4","GP_ID":"196786309","ELEMENT_SET_NO":"999","ECCENTRICITY":"0.00017140","OBJECT_ID":"2020-088AN","TIME_SYSTEM":"UTC","RA_OF_ASC_NODE":"72.7190","MEAN_MOTION":"15.06401348","TLE_LINE2":"2 47158  53.0543  72.7190 0001714  61.9209 298.1953 15.06401348 69670","APOAPSIS":"548.396","SITE":"AFETR","RCS_SIZE":"LARGE","MEAN_MOTION_DOT":"0.00003817","EPOCH":"2022-02-23T18:47:52.240992","TLE_LINE1":"1 47158U 20088AN  22054.78324353  .00003817  00000-0  27501-3 0  9998","MEAN_MOTION_DDOT":"0.0000000000000","PERIOD":"95.592","SEMIMAJOR_AXIS":"6925.344","BSTAR":"0.00027501000000","PERIAPSIS":"546.022","ARG_OF_PERICENTER":"61.9209","CLASSIFICATION_TYPE":"U","REV_AT_EPOCH":"6967"},{"EPOCH":"2022-02-23T06:58:22.599840","MEAN_MOTION_DOT":"0.00535546","MEAN_MOTION_DDOT":"0.0000000000000","TLE_LINE1":"1 47159U 20088AP  22054.29053935  .00535546  00000-0  29222-2 0  9990","MEAN_MOTION":"15.77860012","RA_OF_ASC_NODE":"52.0839","RCS_SIZE":"LARGE","SITE":"AFETR","APOAPSIS":"341.376","TLE_LINE2":"2 47159  53.0530  52.0839 0007251 268.9237  91.0952 15.77860012 69922","PERIAPSIS":"331.638","REV_AT_EPOCH":"6992","ARG_OF_PERICENTER":"268.9237","CLASSIFICATION_TYPE":"U","BSTAR":"0.00292220000000","SEMIMAJOR_AXIS":"6714.642","PERIOD":"91.263","CENTER_NAME":"EARTH","REF_FRAME":"TEME","MEAN_ANOMALY":"91.0952","DECAY_DATE":null,"COUNTRY_CODE":"US","OBJECT_TYPE":"PAYLOAD","EPHEMERIS_TYPE":"0","OBJECT_NAME":"STARLINK-1874","NORAD_CAT_ID":"47159","TIME_SYSTEM":"UTC","OBJECT_ID":"2020-088AP","ECCENTRICITY":"0.00072510","LAUNCH_DATE":"2020-11-25","FILE":"3316306","INCLINATION":"53.0530","GP_ID":"196742065","ELEMENT_SET_NO":"999","MEAN_ELEMENT_THEORY":"SGP4"},{"PERIAPSIS":"546.163","CLASSIFICATION_TYPE":"U","ARG_OF_PERICENTER":"57.9801","REV_AT_EPOCH":"6967","PERIOD":"95.593","SEMIMAJOR_AXIS":"6925.368","BSTAR":"-0.00005039800000","EPOCH":"2022-02-23T18:00:06.275232","MEAN_MOTION_DOT":"-0.00001032","TLE_LINE1":"1 47161U 20088AR  22054.75007263 -.00001032  00000-0 -50398-4 0  9997","MEAN_MOTION_DDOT":"0.0000000000000","RA_OF_ASC_NODE":"72.8728","MEAN_MOTION":"15.06393539","TLE_LINE2":"2 47161  53.0547  72.8728 0001546  57.9801 302.1338 15.06393539 69677","APOAPSIS":"548.304","SITE":"AFETR","RCS_SIZE":"LARGE","ECCENTRICITY":"0.00015460","OBJECT_ID":"2020-088AR","TIME_SYSTEM":"UTC","INCLINATION":"53.0547","FILE":"3317219","LAUNCH_DATE":"2020-11-25","MEAN_ELEMENT_THEORY":"SGP4","GP_ID":"196784807","ELEMENT_SET_NO":"999","REF_FRAME":"TEME","CENTER_NAME":"EARTH","MEAN_ANOMALY":"302.1338","COUNTRY_CODE":"US","OBJECT_TYPE":"PAYLOAD","EPHEMERIS_TYPE":"0","DECAY_DATE":null,"NORAD_CAT_ID":"47161","OBJECT_NAME":"STARLINK-1876"}];
